CCSDS_OMM_VERS = 2.0
CREATION_DATE  = 
ORIGINATOR     = 

OBJECT_NAME    = STARLINK-36925
OBJECT_ID      = 2026-041C
CENTER_NAME    = EARTH
REF_FRAME      = TEME
TIME_SYSTEM    = UTC
MEAN_ELEMENT_THEORY = SGP/SGP4

EPOCH          = 2026-03-10T02:00:03.000384
MEAN_MOTION    = 15.90595394
ECCENTRICITY   = .0000698
INCLINATION    = 53.1594
RA_OF_ASC_NODE = 60.2682
ARG_OF_PERICENTER = 93.0137
MEAN_ANOMALY   = 102.8797

EPHEMERIS_TYPE = 0
CLASSIFICATION_TYPE = U
NORAD_CAT_ID   = 68042
ELEMENT_SET_NO = 999
REV_AT_EPOCH   = 243
BSTAR          = -.52938E-2
MEAN_MOTION_DOT = -.145802E-1
MEAN_MOTION_DDOT = 0

CCSDS_OMM_VERS = 2.0
CREATION_DATE  = 
ORIGINATOR     = 

OBJECT_NAME    = STARLINK-36902
OBJECT_ID      = 2026-041D
CENTER_NAME    = EARTH
REF_FRAME      = TEME
TIME_SYSTEM    = UTC
MEAN_ELEMENT_THEORY = SGP/SGP4

EPOCH          = 2026-03-10T02:00:03.000384
MEAN_MOTION    = 15.90900996
ECCENTRICITY   = .00008
INCLINATION    = 53.1598
RA_OF_ASC_NODE = 60.2578
ARG_OF_PERICENTER = 95.1927
MEAN_ANOMALY   = 105.6833

EPHEMERIS_TYPE = 0
CLASSIFICATION_TYPE = U
NORAD_CAT_ID   = 68043
ELEMENT_SET_NO = 999
REV_AT_EPOCH   = 243
BSTAR          = -.52302E-2
MEAN_MOTION_DOT = -.1670802E-1
MEAN_MOTION_DDOT = .77153E-3

CCSDS_OMM_VERS = 2.0
CREATION_DATE  = 
ORIGINATOR     = 

OBJECT_NAME    = STARLINK-36966
OBJECT_ID      = 2026-041E
CENTER_NAME    = EARTH
REF_FRAME      = TEME
TIME_SYSTEM    = UTC
MEAN_ELEMENT_THEORY = SGP/SGP4

EPOCH          = 2026-03-10T02:00:03.000384
MEAN_MOTION    = 15.91171825
ECCENTRICITY   = .0000869
INCLINATION    = 53.1596
RA_OF_ASC_NODE = 60.2465
ARG_OF_PERICENTER = 87.5610
MEAN_ANOMALY   = 118.6972

EPHEMERIS_TYPE = 0
CLASSIFICATION_TYPE = U
NORAD_CAT_ID   = 68044
ELEMENT_SET_NO = 999
REV_AT_EPOCH   = 243
BSTAR          = -.51172E-2
MEAN_MOTION_DOT = -.1657756E-1
MEAN_MOTION_DDOT = .76249E-3

CCSDS_OMM_VERS = 2.0
CREATION_DATE  = 
ORIGINATOR     = 

OBJECT_NAME    = STARLINK-36864
OBJECT_ID      = 2026-041F
CENTER_NAME    = EARTH
REF_FRAME      = TEME
TIME_SYSTEM    = UTC
MEAN_ELEMENT_THEORY = SGP/SGP4

EPOCH          = 2026-03-10T02:00:03.000384
MEAN_MOTION    = 15.91026852
ECCENTRICITY   = .0000891
INCLINATION    = 53.1595
RA_OF_ASC_NODE = 60.2519
ARG_OF_PERICENTER = 98.6993
MEAN_ANOMALY   = 105.1220

EPHEMERIS_TYPE = 0
CLASSIFICATION_TYPE = U
NORAD_CAT_ID   = 68045
ELEMENT_SET_NO = 999
REV_AT_EPOCH   = 243
BSTAR          = -.51621E-2
MEAN_MOTION_DOT = -.1659869E-1
MEAN_MOTION_DDOT = .7632E-3

CCSDS_OMM_VERS = 2.0
CREATION_DATE  = 
ORIGINATOR     = 

OBJECT_NAME    = STARLINK-36321
OBJECT_ID      = 2026-041G
CENTER_NAME    = EARTH
REF_FRAME      = TEME
TIME_SYSTEM    = UTC
MEAN_ELEMENT_THEORY = SGP/SGP4

EPOCH          = 2026-03-10T02:00:03.000384
MEAN_MOTION    = 15.91455900
ECCENTRICITY   = .0000922
INCLINATION    = 53.1597
RA_OF_ASC_NODE = 60.2354
ARG_OF_PERICENTER = 93.6115
MEAN_ANOMALY   = 118.0246

EPHEMERIS_TYPE = 0
CLASSIFICATION_TYPE = U
NORAD_CAT_ID   = 68046
ELEMENT_SET_NO = 999
REV_AT_EPOCH   = 243
BSTAR          = -.51E-2
MEAN_MOTION_DOT = -.1676272E-1
MEAN_MOTION_DDOT = .78036E-3

CCSDS_OMM_VERS = 2.0
CREATION_DATE  = 
ORIGINATOR     = 

OBJECT_NAME    = STARLINK-36181
OBJECT_ID      = 2026-041H
CENTER_NAME    = EARTH
REF_FRAME      = TEME
TIME_SYSTEM    = UTC
MEAN_ELEMENT_THEORY = SGP/SGP4

EPOCH          = 2026-03-10T02:00:03.000384
MEAN_MOTION    = 15.91310565
ECCENTRICITY   = .0000953
INCLINATION    = 53.1597
RA_OF_ASC_NODE = 60.2413
ARG_OF_PERICENTER = 91.5669
MEAN_ANOMALY   = 117.3631

EPHEMERIS_TYPE = 0
CLASSIFICATION_TYPE = U
NORAD_CAT_ID   = 68047
ELEMENT_SET_NO = 999
REV_AT_EPOCH   = 231
BSTAR          = -.50844E-2
MEAN_MOTION_DOT = -.165893E-1
MEAN_MOTION_DDOT = .7645E-3

CCSDS_OMM_VERS = 2.0
CREATION_DATE  = 
ORIGINATOR     = 

OBJECT_NAME    = STARLINK-36318
OBJECT_ID      = 2026-041J
CENTER_NAME    = EARTH
REF_FRAME      = TEME
TIME_SYSTEM    = UTC
MEAN_ELEMENT_THEORY = SGP/SGP4

EPOCH          = 2026-03-10T02:00:03.000384
MEAN_MOTION    = 15.91579962
ECCENTRICITY   = .0000696
INCLINATION    = 53.1597
RA_OF_ASC_NODE = 60.2304
ARG_OF_PERICENTER = 88.4030
MEAN_ANOMALY   = 125.7392

EPHEMERIS_TYPE = 0
CLASSIFICATION_TYPE = U
NORAD_CAT_ID   = 68048
ELEMENT_SET_NO = 999
REV_AT_EPOCH   = 243
BSTAR          = -.49621E-2
MEAN_MOTION_DOT = -.1641841E-1
MEAN_MOTION_DDOT = .75206E-3

CCSDS_OMM_VERS = 2.0
CREATION_DATE  = 
ORIGINATOR     = 

OBJECT_NAME    = STARLINK-36885
OBJECT_ID      = 2026-041K
CENTER_NAME    = EARTH
REF_FRAME      = TEME
TIME_SYSTEM    = UTC
MEAN_ELEMENT_THEORY = SGP/SGP4

EPOCH          = 2026-03-10T02:00:03.000384
MEAN_MOTION    = 15.91853063
ECCENTRICITY   = .0000977
INCLINATION    = 53.1595
RA_OF_ASC_NODE = 60.2185
ARG_OF_PERICENTER = 88.3598
MEAN_ANOMALY   = 131.4341

EPHEMERIS_TYPE = 0
CLASSIFICATION_TYPE = U
NORAD_CAT_ID   = 68049
ELEMENT_SET_NO = 999
REV_AT_EPOCH   = 243
BSTAR          = -.49693E-2
MEAN_MOTION_DOT = -.1667313E-1
MEAN_MOTION_DDOT = .7757E-3

CCSDS_OMM_VERS = 2.0
CREATION_DATE  = 
ORIGINATOR     = 

OBJECT_NAME    = STARLINK-36945
OBJECT_ID      = 2026-041L
CENTER_NAME    = EARTH
REF_FRAME      = TEME
TIME_SYSTEM    = UTC
MEAN_ELEMENT_THEORY = SGP/SGP4

EPOCH          = 2026-03-10T02:00:03.000384
MEAN_MOTION    = 15.91719135
ECCENTRICITY   = .0000814
INCLINATION    = 53.1595
RA_OF_ASC_NODE = 60.2243
ARG_OF_PERICENTER = 86.9404
MEAN_ANOMALY   = 130.0703

EPHEMERIS_TYPE = 0
CLASSIFICATION_TYPE = U
NORAD_CAT_ID   = 68050
ELEMENT_SET_NO = 999
REV_AT_EPOCH   = 243
BSTAR          = -.49964E-2
MEAN_MOTION_DOT = -.1664834E-1
MEAN_MOTION_DDOT = .77257E-3

CCSDS_OMM_VERS = 2.0
CREATION_DATE  = 
ORIGINATOR     = 

OBJECT_NAME    = STARLINK-35911
OBJECT_ID      = 2026-041M
CENTER_NAME    = EARTH
REF_FRAME      = TEME
TIME_SYSTEM    = UTC
MEAN_ELEMENT_THEORY = SGP/SGP4

EPOCH          = 2026-03-10T02:00:03.000384
MEAN_MOTION    = 15.91972761
ECCENTRICITY   = .0000686
INCLINATION    = 53.1596
RA_OF_ASC_NODE = 60.2129
ARG_OF_PERICENTER = 89.4452
MEAN_ANOMALY   = 133.2690

EPHEMERIS_TYPE = 0
CLASSIFICATION_TYPE = U
NORAD_CAT_ID   = 68051
ELEMENT_SET_NO = 999
REV_AT_EPOCH   = 240
BSTAR          = -.49086E-2
MEAN_MOTION_DOT = -.1657276E-1
MEAN_MOTION_DDOT = .76804E-3

CCSDS_OMM_VERS = 2.0
CREATION_DATE  = 
ORIGINATOR     = 

OBJECT_NAME    = STARLINK-35808
OBJECT_ID      = 2026-041N
CENTER_NAME    = EARTH
REF_FRAME      = TEME
TIME_SYSTEM    = UTC
MEAN_ELEMENT_THEORY = SGP/SGP4

EPOCH          = 2026-03-10T02:00:03.000384
MEAN_MOTION    = 15.92112170
ECCENTRICITY   = .0000895
INCLINATION    = 53.1593
RA_OF_ASC_NODE = 60.2067
ARG_OF_PERICENTER = 98.5178
MEAN_ANOMALY   = 126.8210

EPHEMERIS_TYPE = 0
CLASSIFICATION_TYPE = U
NORAD_CAT_ID   = 68052
ELEMENT_SET_NO = 999
REV_AT_EPOCH   = 240
BSTAR          = -.48894E-2
MEAN_MOTION_DOT = -.1662728E-1
MEAN_MOTION_DDOT = .77375E-3

CCSDS_OMM_VERS = 2.0
CREATION_DATE  = 
ORIGINATOR     = 

OBJECT_NAME    = STARLINK-36919
OBJECT_ID      = 2026-041P
CENTER_NAME    = EARTH
REF_FRAME      = TEME
TIME_SYSTEM    = UTC
MEAN_ELEMENT_THEORY = SGP/SGP4

EPOCH          = 2026-03-10T02:00:03.000384
MEAN_MOTION    = 15.92229142
ECCENTRICITY   = .000083
INCLINATION    = 53.1594
RA_OF_ASC_NODE = 60.2012
ARG_OF_PERICENTER = 93.8128
MEAN_ANOMALY   = 134.3425

EPHEMERIS_TYPE = 0
CLASSIFICATION_TYPE = U
NORAD_CAT_ID   = 68053
ELEMENT_SET_NO = 999
REV_AT_EPOCH   = 243
BSTAR          = -.48114E-2
MEAN_MOTION_DOT = -.1646407E-1
MEAN_MOTION_DDOT = .76072E-3

