STARLINK-36925          
1 68042U 26041C   26069.08336806 -.01458020  00000+0 -52938-2 0  9990
2 68042  53.1594  60.2682 0000698  93.0137 102.8797 15.90595394  2432
STARLINK-36902          
1 68043U 26041D   26069.08336806 -.01670802  77153-3 -52302-2 0  9997
2 68043  53.1598  60.2578 0000800  95.1927 105.6833 15.90900996  2436
STARLINK-36966          
1 68044U 26041E   26069.08336806 -.01657756  76249-3 -51172-2 0  9990
2 68044  53.1596  60.2465 0000869  87.5610 118.6972 15.91171825  2439
STARLINK-36864          
1 68045U 26041F   26069.08336806 -.01659869  76320-3 -51621-2 0  9997
2 68045  53.1595  60.2519 0000891  98.6993 105.1220 15.91026852  2437
STARLINK-36321          
1 68046U 26041G   26069.08336806 -.01676272  78036-3 -51000-2 0  9992
2 68046  53.1597  60.2354 0000922  93.6115 118.0246 15.91455900  2434
STARLINK-36181          
1 68047U 26041H   26069.08336806 -.01658930  76450-3 -50844-2 0  9997
2 68047  53.1597  60.2413 0000953  91.5669 117.3631 15.91310565  2310
STARLINK-36318          
1 68048U 26041J   26069.08336806 -.01641841  75206-3 -49621-2 0  9990
2 68048  53.1597  60.2304 0000696  88.4030 125.7392 15.91579962  2439
STARLINK-36885          
1 68049U 26041K   26069.08336806 -.01667313  77570-3 -49693-2 0  9998
2 68049  53.1595  60.2185 0000977  88.3598 131.4341 15.91853063  2430
STARLINK-36945          
1 68050U 26041L   26069.08336806 -.01664834  77257-3 -49964-2 0  9998
2 68050  53.1595  60.2243 0000814  86.9404 130.0703 15.91719135  2435
STARLINK-35911          
1 68051U 26041M   26069.08336806 -.01657276  76804-3 -49086-2 0  9993
2 68051  53.1596  60.2129 0000686  89.4452 133.2690 15.91972761  2401
STARLINK-35808          
1 68052U 26041N   26069.08336806 -.01662728  77375-3 -48894-2 0  9992
2 68052  53.1593  60.2067 0000895  98.5178 126.8210 15.92112170  2405
STARLINK-36919          
1 68053U 26041P   26069.08336806 -.01646407  76072-3 -48114-2 0  9997
2 68053  53.1594  60.2012 0000830  93.8128 134.3425 15.92229142  2432
